[{"OBJECT_NAME":"GOMX-1","OBJECT_ID":"2013-066Q","EPOCH":"2026-03-09T23:03:54.857376","MEAN_MOTION":14.69103088,"ECCENTRICITY":0.01302226,"INCLINATION":97.6568,"RA_OF_ASC_NODE":275.6493,"ARG_OF_PERICENTER":36.6495,"MEAN_ANOMALY":324.3532,"EPHEMERIS_TYPE":0,"CLASSIFICATION_TYPE":"U","NORAD_CAT_ID":39430,"ELEMENT_SET_NO":999,"REV_AT_EPOCH":65534,"BSTAR":0.00051711143,"MEAN_MOTION_DOT":3.409e-5,"MEAN_MOTION_DDOT":0},{"OBJECT_NAME":"SL-8 R\/B","OBJECT_ID":"1974-071B","EPOCH":"2026-03-09T13:19:42.519072","MEAN_MOTION":14.38187805,"ECCENTRICITY":0.002129,"INCLINATION":74.0447,"RA_OF_ASC_NODE":116.5476,"ARG_OF_PERICENTER":316.6321,"MEAN_ANOMALY":43.3157,"EPHEMERIS_TYPE":0,"CLASSIFICATION_TYPE":"U","NORAD_CAT_ID":7434,"ELEMENT_SET_NO":999,"REV_AT_EPOCH":69425,"BSTAR":0.00010628,"MEAN_MOTION_DOT":2.97e-6,"MEAN_MOTION_DDOT":0}]
